{"type": "FeatureCollection", "features": [ {"type": "Feature", "properties": {"norad_id": 17070, "name": "POLAR BEAR", "group": "nnss", "lat": -66.79918542953253, "lon": 4.739916867079783, "alt_km": 1004.0746998457789, "timestamp": "2025-12-10T21:43:22.356565+00:00", "meta": {"OBJECT_NAME": "POLAR BEAR", "OBJECT_ID": "1986-088A", "EPOCH": "2025-12-10T12:05:37.086144", "MEAN_MOTION": 13.75250149, "ECCENTRICITY": 0.0040839, "INCLINATION": 89.6176, "RA_OF_ASC_NODE": 183.8633, "ARG_OF_PERICENTER": 125.7228, "MEAN_ANOMALY": 295.451, "EPHEMERIS_TYPE": 0, "CLASSIFICATION_TYPE": "U", "NORAD_CAT_ID": 17070, "ELEMENT_SET_NO": 999, "REV_AT_EPOCH": 95948, "BSTAR": 0.00014787852, "MEAN_MOTION_DOT": 1.54e-06, "MEAN_MOTION_DDOT": 0}, "tle": {"line1": "1 17070U 86088A   25344.50390146  .00000154  00000+0  14788-3 0  9991", "line2": "2 17070  89.6176 183.8633 0040839 125.7228 295.4510 13.75250149959485"}}, "geometry": {"type": "Point", "coordinates": [4.739916867079783, -66.79918542953253]}}, {"type": "Feature", "properties": {"norad_id": 18361, "name": "OSCAR 27", "group": "nnss", "lat": -15.120349119750449, "lon": 79.30486357000984, "alt_km": 1128.606532908013, "timestamp": "2025-12-10T21:43:22.356575+00:00", "meta": {"OBJECT_NAME": "OSCAR 27", "OBJECT_ID": "1987-080A", "EPOCH": "2025-12-10T12:52:14.922048", "MEAN_MOTION": 13.44906041, "ECCENTRICITY": 0.01027472, "INCLINATION": 90.3742, "RA_OF_ASC_NODE": 79.1899, "ARG_OF_PERICENTER": 230.1795, "MEAN_ANOMALY": 129.0276, "EPHEMERIS_TYPE": 0, "CLASSIFICATION_TYPE": "U", "NORAD_CAT_ID": 18361, "ELEMENT_SET_NO": 999, "REV_AT_EPOCH": 87527, "BSTAR": 0.0002684905, "MEAN_MOTION_DOT": 1.7e-06, "MEAN_MOTION_DDOT": 0}, "tle": {"line1": "1 18361U 87080A   25344.53628382  .00000170  00000+0  26849-3 0  9996", "line2": "2 18361  90.3742  79.1899 0102747 230.1795 129.0276 13.44906041875275"}}, "geometry": {"type": "Point", "coordinates": [79.30486357000984, -15.120349119750449]}}, {"type": "Feature", "properties": {"norad_id": 18362, "name": "OSCAR 29", "group": "nnss", "lat": 0.16821419598944015, "lon": 79.66134530554667, "alt_km": 1118.6131762559526, "timestamp": "2025-12-10T21:43:22.356586+00:00", "meta": {"OBJECT_NAME": "OSCAR 29", "OBJECT_ID": "1987-080B", "EPOCH": "2025-12-10T07:44:04.763040", "MEAN_MOTION": 13.44447807, "ECCENTRICITY": 0.0103811, "INCLINATION": 90.3754, "RA_OF_ASC_NODE": 79.6406, "ARG_OF_PERICENTER": 254.1865, "MEAN_ANOMALY": 165.6643, "EPHEMERIS_TYPE": 0, "CLASSIFICATION_TYPE": "U", "NORAD_CAT_ID": 18362, "ELEMENT_SET_NO": 999, "REV_AT_EPOCH": 87477, "BSTAR": 0.0002499, "MEAN_MOTION_DOT": 1.57e-06, "MEAN_MOTION_DDOT": 0}, "tle": {"line1": "1 18362U 87080B   25344.32227735  .00000157  00000+0  24990-3 0  9991", "line2": "2 18362  90.3754  79.6406 0103811 254.1865 165.6643 13.44447807874773"}}, "geometry": {"type": "Point", "coordinates": [79.66134530554667, 0.16821419598944015]}}, {"type": "Feature", "properties": {"norad_id": 19070, "name": "OSCAR 23", "group": "nnss", "lat": -66.34231412737991, "lon": -164.39828036082403, "alt_km": 1091.8133488589783, "timestamp": "2025-12-10T21:43:22.356596+00:00", "meta": {"OBJECT_NAME": "OSCAR 23", "OBJECT_ID": "1988-033A", "EPOCH": "2025-12-10T12:05:29.983200", "MEAN_MOTION": 13.27786635, "ECCENTRICITY": 0.01893447, "INCLINATION": 90.3214, "RA_OF_ASC_NODE": 16.3233, "ARG_OF_PERICENTER": 186.1416, "MEAN_ANOMALY": 301.1499, "EPHEMERIS_TYPE": 0, "CLASSIFICATION_TYPE": "U", "NORAD_CAT_ID": 19070, "ELEMENT_SET_NO": 999, "REV_AT_EPOCH": 82223, "BSTAR": 0.00020510801, "MEAN_MOTION_DOT": 1.1e-06, "MEAN_MOTION_DDOT": 0}, "tle": {"line1": "1 19070U 88033A   25344.50381925  .00000110  00000+0  20511-3 0  9993", "line2": "2 19070  90.3214  16.3233 0189344 186.1416 301.1499 13.27786635822234"}}, "geometry": {"type": "Point", "coordinates": [-164.39828036082403, -66.34231412737991]}}, {"type": "Feature", "properties": {"norad_id": 19071, "name": "OSCAR 32", "group": "nnss", "lat": -6.558491762759207, "lon": 16.504857455191267, "alt_km": 1299.9268852300493, "timestamp": "2025-12-10T21:43:22.356606+00:00", "meta": {"OBJECT_NAME": "OSCAR 32", "OBJECT_ID": "1988-033B", "EPOCH": "2025-12-10T04:02:11.577120", "MEAN_MOTION": 13.27953499, "ECCENTRICITY": 0.01881562, "INCLINATION": 90.3219, "RA_OF_ASC_NODE": 16.4448, "ARG_OF_PERICENTER": 173.9306, "MEAN_ANOMALY": 258.7457, "EPHEMERIS_TYPE": 0, "CLASSIFICATION_TYPE": "U", "NORAD_CAT_ID": 19071, "ELEMENT_SET_NO": 999, "REV_AT_EPOCH": 82231, "BSTAR": 0.00017276505, "MEAN_MOTION_DOT": 9.5e-07, "MEAN_MOTION_DDOT": 0}, "tle": {"line1": "1 19071U 88033B   25344.16818955  .00000095  00000+0  17277-3 0  9991", "line2": "2 19071  90.3219  16.4448 0188156 173.9306 258.7457 13.27953499822315"}}, "geometry": {"type": "Point", "coordinates": [16.504857455191267, -6.558491762759207]}}, {"type": "Feature", "properties": {"norad_id": 19223, "name": "NOVA 2", "group": "nnss", "lat": -43.89843511109586, "lon": -101.71290280318189, "alt_km": 1201.7872875818975, "timestamp": "2025-12-10T21:43:22.356616+00:00", "meta": {"OBJECT_NAME": "NOVA 2", "OBJECT_ID": "1988-052A", "EPOCH": "2025-12-10T13:23:47.259168", "MEAN_MOTION": 13.2293565, "ECCENTRICITY": 0.00307763, "INCLINATION": 89.9872, "RA_OF_ASC_NODE": 78.2752, "ARG_OF_PERICENTER": 22.8571, "MEAN_ANOMALY": 349.7456, "EPHEMERIS_TYPE": 0, "CLASSIFICATION_TYPE": "U", "NORAD_CAT_ID": 19223, "ELEMENT_SET_NO": 999, "REV_AT_EPOCH": 80919, "BSTAR": 0.00019431123, "MEAN_MOTION_DOT": 9.1e-07, "MEAN_MOTION_DDOT": 0}, "tle": {"line1": "1 19223U 88052A   25344.55818587  .00000091  00000+0  19431-3 0  9995", "line2": "2 19223  89.9872  78.2752 0030776  22.8571 349.7456 13.22935650809192"}}, "geometry": {"type": "Point", "coordinates": [-101.71290280318189, -43.89843511109586]}}, {"type": "Feature", "properties": {"norad_id": 19419, "name": "OSCAR 25", "group": "nnss", "lat": 10.672690724347502, "lon": -159.75518904898777, "alt_km": 1090.4715672067641, "timestamp": "2025-12-10T21:43:22.356626+00:00", "meta": {"OBJECT_NAME": "OSCAR 25", "OBJECT_ID": "1988-074A", "EPOCH": "2025-12-10T12:32:06.088416", "MEAN_MOTION": 13.42622723, "ECCENTRICITY": 0.00943622, "INCLINATION": 90.0349, "RA_OF_ASC_NODE": 20.2369, "ARG_OF_PERICENTER": 252.2793, "MEAN_ANOMALY": 228.7267, "EPHEMERIS_TYPE": 0, "CLASSIFICATION_TYPE": "U", "NORAD_CAT_ID": 19419, "ELEMENT_SET_NO": 999, "REV_AT_EPOCH": 82610, "BSTAR": 0.00021789144, "MEAN_MOTION_DOT": 1.35e-06, "MEAN_MOTION_DDOT": 0}, "tle": {"line1": "1 19419U 88074A   25344.52229269  .00000135  00000+0  21789-3 0  9994", "line2": "2 19419  90.0349  20.2369 0094362 252.2793 228.7267 13.42622723826100"}}, "geometry": {"type": "Point", "coordinates": [-159.75518904898777, 10.672690724347502]}}, {"type": "Feature", "properties": {"norad_id": 19420, "name": "OSCAR 31", "group": "nnss", "lat": 54.451332472982905, "lon": 20.536918726583213, "alt_km": 1162.6148226437717, "timestamp": "2025-12-10T21:43:22.356637+00:00", "meta": {"OBJECT_NAME": "OSCAR 31", "OBJECT_ID": "1988-074B", "EPOCH": "2025-12-10T08:59:02.817888", "MEAN_MOTION": 13.42584048, "ECCENTRICITY": 0.00926324, "INCLINATION": 90.0365, "RA_OF_ASC_NODE": 20.5861, "ARG_OF_PERICENTER": 246.8053, "MEAN_ANOMALY": 123.5934, "EPHEMERIS_TYPE": 0, "CLASSIFICATION_TYPE": "U", "NORAD_CAT_ID": 19420, "ELEMENT_SET_NO": 999, "REV_AT_EPOCH": 82619, "BSTAR": 0.00017491127, "MEAN_MOTION_DOT": 1.1e-06, "MEAN_MOTION_DDOT": 0}, "tle": {"line1": "1 19420U 88074B   25344.37433817  .00000110  00000+0  17491-3 0  9993", "line2": "2 19420  90.0365  20.5861 0092632 246.8053 123.5934 13.42584048826195"}}, "geometry": {"type": "Point", "coordinates": [20.536918726583213, 54.451332472982905]}}]}